{
    "week": 289,
    "satellites": [
        {
            "Name": "COSMOS 2433 (720)",
            "Line1": "1 32275U 07052A   24296.38800858 -.00000064  00000+0  00000+0 0  9995",
            "Line2": "2 32275  65.8837 336.1463 0005667 241.4261 118.5769  2.13104059132219",
            "SatelliteNumber": "32275",
            "Classification": "U",
            "LaunchYear": "07",
            "LaunchNumber": "052",
            "PieceOfLaunch": "A",
            "EpochYear": "24",
            "EpochDay": 296.38800858,
            "FirstDerivativeMeanMotion": -6.4e-07,
            "SecondDerivativeMeanMotion": "00000+0",
            "BSTAR": "00000+0",
            "SetNumber": "999",
            "Inclination": 65.8837,
            "RAAN": 336.1463,
            "Eccentricity": 0.0005667,
            "ArgumentOfPerigee": 241.4261,
            "MeanAnomaly": 118.5769,
            "MeanMotion": 2.13104059,
            "RevolutionNumber": "13221"
        },
        {
            "Name": "COSMOS 2432 (719)",
            "Line1": "1 32276U 07052B   24296.52174352 -.00000064  00000+0  00000+0 0  9995",
            "Line2": "2 32276  65.8987 336.2582 0010279 308.7024  99.7145  2.13103123132251",
            "SatelliteNumber": "32276",
            "Classification": "U",
            "LaunchYear": "07",
            "LaunchNumber": "052",
            "PieceOfLaunch": "B",
            "EpochYear": "24",
            "EpochDay": 296.52174352,
            "FirstDerivativeMeanMotion": -6.4e-07,
            "SecondDerivativeMeanMotion": "00000+0",
            "BSTAR": "00000+0",
            "SetNumber": "999",
            "Inclination": 65.8987,
            "RAAN": 336.2582,
            "Eccentricity": 0.0010279,
            "ArgumentOfPerigee": 308.7024,
            "MeanAnomaly": 99.7145,
            "MeanMotion": 2.13103123,
            "RevolutionNumber": "13225"
        },
        {
            "Name": "COSMOS 2434 (721)",
            "Line1": "1 32393U 07065A   24297.11009619 -.00000013  00000+0  00000+0 0  9992",
            "Line2": "2 32393  64.3172 212.2434 0002496  65.6848  20.4009  2.13101283130977",
            "SatelliteNumber": "32393",
            "Classification": "U",
            "LaunchYear": "07",
            "LaunchNumber": "065",
            "PieceOfLaunch": "A",
            "EpochYear": "24",
            "EpochDay": 297.11009619,
            "FirstDerivativeMeanMotion": -1.3e-07,
            "SecondDerivativeMeanMotion": "00000+0",
            "BSTAR": "00000+0",
            "SetNumber": "999",
            "Inclination": 64.3172,
            "RAAN": 212.2434,
            "Eccentricity": 0.0002496,
            "ArgumentOfPerigee": 65.6848,
            "MeanAnomaly": 20.4009,
            "MeanMotion": 2.13101283,
            "RevolutionNumber": "13097"
        },
        {
            "Name": "COSMOS 2436 (723)",
            "Line1": "1 32395U 07065C   24296.59219545 -.00000005  00000+0  00000+0 0  9997",
            "Line2": "2 32395  64.3258 212.3268 0016875   1.3945 182.2451  2.13100011130898",
            "SatelliteNumber": "32395",
            "Classification": "U",
            "LaunchYear": "07",
            "LaunchNumber": "065",
            "PieceOfLaunch": "C",
            "EpochYear": "24",
            "EpochDay": 296.59219545,
            "FirstDerivativeMeanMotion": -5e-08,
            "SecondDerivativeMeanMotion": "00000+0",
            "BSTAR": "00000+0",
            "SetNumber": "999",
            "Inclination": 64.3258,
            "RAAN": 212.3268,
            "Eccentricity": 0.0016875,
            "ArgumentOfPerigee": 1.3945,
            "MeanAnomaly": 182.2451,
            "MeanMotion": 2.13100011,
            "RevolutionNumber": "13089"
        },
        {
            "Name": "COSMOS 2456 (730)",
            "Line1": "1 36111U 09070A   24297.35181935  .00000041  00000+0  00000+0 0  9990",
            "Line2": "2 36111  64.6755  91.5598 0001352 324.9930 100.8839  2.13103707115645",
            "SatelliteNumber": "36111",
            "Classification": "U",
            "LaunchYear": "09",
            "LaunchNumber": "070",
            "PieceOfLaunch": "A",
            "EpochYear": "24",
            "EpochDay": 297.35181935,
            "FirstDerivativeMeanMotion": 4.1e-07,
            "SecondDerivativeMeanMotion": "00000+0",
            "BSTAR": "00000+0",
            "SetNumber": "999",
            "Inclination": 64.6755,
            "RAAN": 91.5598,
            "Eccentricity": 0.0001352,
            "ArgumentOfPerigee": 324.993,
            "MeanAnomaly": 100.8839,
            "MeanMotion": 2.13103707,
            "RevolutionNumber": "11564"
        },
        {
            "Name": "COSMOS 2457 (733)",
            "Line1": "1 36112U 09070B   24297.16526485  .00000039  00000+0  00000+0 0  9990",
            "Line2": "2 36112  64.6599  91.4221 0006250 145.7783 269.9339  2.13101144115646",
            "SatelliteNumber": "36112",
            "Classification": "U",
            "LaunchYear": "09",
            "LaunchNumber": "070",
            "PieceOfLaunch": "B",
            "EpochYear": "24",
            "EpochDay": 297.16526485,
            "FirstDerivativeMeanMotion": 3.9e-07,
            "SecondDerivativeMeanMotion": "00000+0",
            "BSTAR": "00000+0",
            "SetNumber": "999",
            "Inclination": 64.6599,
            "RAAN": 91.4221,
            "Eccentricity": 0.000625,
            "ArgumentOfPerigee": 145.7783,
            "MeanAnomaly": 269.9339,
            "MeanMotion": 2.13101144,
            "RevolutionNumber": "11564"
        },
        {
            "Name": "COSMOS 2460 (732)",
            "Line1": "1 36402U 10007C   24296.24229057 -.00000062  00000+0  00000+0 0  9994",
            "Line2": "2 36402  65.7375 334.7946 0002699 245.4584 175.7094  2.13106210113974",
            "SatelliteNumber": "36402",
            "Classification": "U",
            "LaunchYear": "10",
            "LaunchNumber": "007",
            "PieceOfLaunch": "C",
            "EpochYear": "24",
            "EpochDay": 296.24229057,
            "FirstDerivativeMeanMotion": -6.2e-07,
            "SecondDerivativeMeanMotion": "00000+0",
            "BSTAR": "00000+0",
            "SetNumber": "999",
            "Inclination": 65.7375,
            "RAAN": 334.7946,
            "Eccentricity": 0.0002699,
            "ArgumentOfPerigee": 245.4584,
            "MeanAnomaly": 175.7094,
            "MeanMotion": 2.1310621,
            "RevolutionNumber": "11397"
        },
        {
            "Name": "COSMOS 2476 (744)",
            "Line1": "1 37867U 11064A   24297.38236340  .00000044  00000+0  00000+0 0  9992",
            "Line2": "2 37867  64.9461  93.2415 0022150 230.3998 130.7112  2.13101573100998",
            "SatelliteNumber": "37867",
            "Classification": "U",
            "LaunchYear": "11",
            "LaunchNumber": "064",
            "PieceOfLaunch": "A",
            "EpochYear": "24",
            "EpochDay": 297.3823634,
            "FirstDerivativeMeanMotion": 4.4e-07,
            "SecondDerivativeMeanMotion": "00000+0",
            "BSTAR": "00000+0",
            "SetNumber": "999",
            "Inclination": 64.9461,
            "RAAN": 93.2415,
            "Eccentricity": 0.002215,
            "ArgumentOfPerigee": 230.3998,
            "MeanAnomaly": 130.7112,
            "MeanMotion": 2.13101573,
            "RevolutionNumber": "10099"
        },
        {
            "Name": "COSMOS 2477 (745)",
            "Line1": "1 37868U 11064B   24297.23633160  .00000043  00000+0  00000+0 0  9997",
            "Line2": "2 37868  64.9531  93.3200 0019311 230.5432 197.2976  2.13103014100921",
            "SatelliteNumber": "37868",
            "Classification": "U",
            "LaunchYear": "11",
            "LaunchNumber": "064",
            "PieceOfLaunch": "B",
            "EpochYear": "24",
            "EpochDay": 297.2363316,
            "FirstDerivativeMeanMotion": 4.3e-07,
            "SecondDerivativeMeanMotion": "00000+0",
            "BSTAR": "00000+0",
            "SetNumber": "999",
            "Inclination": 64.9531,
            "RAAN": 93.32,
            "Eccentricity": 0.0019311,
            "ArgumentOfPerigee": 230.5432,
            "MeanAnomaly": 197.2976,
            "MeanMotion": 2.13103014,
            "RevolutionNumber": "10092"
        },
        {
            "Name": "COSMOS 2475 (743)",
            "Line1": "1 37869U 11064C   24297.43376281  .00000045  00000+0  00000+0 0  9990",
            "Line2": "2 37869  64.9600  93.3294 0023615 247.5130 289.6324  2.13101746100931",
            "SatelliteNumber": "37869",
            "Classification": "U",
            "LaunchYear": "11",
            "LaunchNumber": "064",
            "PieceOfLaunch": "C",
            "EpochYear": "24",
            "EpochDay": 297.43376281,
            "FirstDerivativeMeanMotion": 4.5e-07,
            "SecondDerivativeMeanMotion": "00000+0",
            "BSTAR": "00000+0",
            "SetNumber": "999",
            "Inclination": 64.96,
            "RAAN": 93.3294,
            "Eccentricity": 0.0023615,
            "ArgumentOfPerigee": 247.513,
            "MeanAnomaly": 289.6324,
            "MeanMotion": 2.13101746,
            "RevolutionNumber": "10093"
        }
    ]
}